{
    "links": {
        "self": "http://www.neowsapp.com/rest/v1/neo/3721219?api_key=iIulBulltgU6a56xZRHN4H3l9WmuAYTsLGpBGhQ2"
    },
    "id": "3721219",
    "neo_reference_id": "3721219",
    "name": "(2015 LL24)",
    "designation": "2015 LL24",
    "nasa_jpl_url": "http://ssd.jpl.nasa.gov/sbdb.cgi?sstr=3721219",
    "absolute_magnitude_h": 22.8,
    "estimated_diameter": {
        "kilometers": {
            "estimated_diameter_min": 0.0732073989,
            "estimated_diameter_max": 0.1636967205
        },
        "meters": {
            "estimated_diameter_min": 73.2073989347,
            "estimated_diameter_max": 163.696720474
        },
        "miles": {
            "estimated_diameter_min": 0.0454889547,
            "estimated_diameter_max": 0.1017163949
        },
        "feet": {
            "estimated_diameter_min": 240.181762721,
            "estimated_diameter_max": 537.0627483999
        }
    },
    "is_potentially_hazardous_asteroid": false,
    "close_approach_data": [
        {
            "close_approach_date": "2015-06-20",
            "close_approach_date_full": "2015-Jun-20 20:15",
            "epoch_date_close_approach": 1434831300000,
            "relative_velocity": {
                "kilometers_per_second": "19.073957593",
                "kilometers_per_hour": "68666.2473348263",
                "miles_per_hour": "42666.535739798"
            },
            "miss_distance": {
                "astronomical": "0.1481657202",
                "lunar": "57.6364651578",
                "kilometers": "22165276.148935974",
                "miles": "13772863.9427614812"
            },
            "orbiting_body": "Earth"
        }
    ],
    "orbital_data": {
        "orbit_id": "6",
        "orbit_determination_date": "2017-04-06 08:33:07",
        "first_observation_date": "2015-06-14",
        "last_observation_date": "2015-06-23",
        "data_arc_in_days": 9,
        "observations_used": 49,
        "orbit_uncertainty": "8",
        "minimum_orbit_intersection": ".106944",
        "jupiter_tisserand_invariant": "3.945",
        "epoch_osculation": "2457190.5",
        "eccentricity": ".3431863570906954",
        "semi_major_axis": "1.701082711633042",
        "inclination": "34.44572251134994",
        "ascending_node_longitude": "91.30166285636592",
        "orbital_period": "810.3760047366155",
        "perihelion_distance": "1.117294332717736",
        "perihelion_argument": "192.2896487992668",
        "aphelion_distance": "2.284871090548347",
        "perihelion_time": "2457203.371155738881",
        "mean_anomaly": "354.2821405879322",
        "mean_motion": ".4442382275583363",
        "equinox": "J2000",
        "orbit_class": {
            "orbit_class_type": "AMO",
            "orbit_class_description": "Near-Earth asteroid orbits similar to that of 1221 Amor",
            "orbit_class_range": "1.017 AU < q (perihelion) < 1.3 AU"
        }
    },
    "is_sentry_object": false
}